NAVSTAR 48 (USA 151)    
1 26407U 00040A   26198.74810211  .00000040  00000+0  00000+0 0  9995
2 26407  54.8482 213.9482 0120448 302.7742  87.0083  2.00557900190560
NAVSTAR 51 (USA 166)    
1 27663U 03005A   26198.59217207  .00000039  00000+0  00000+0 0  9991
2 27663  54.8787 213.7607 0148330  53.1775   0.2276  2.00558921171927
NAVSTAR 54 (USA 177)    
1 28190U 04009A   26198.88667341 -.00000042  00000+0  00000+0 0  9997
2 28190  54.8043 274.4455 0117270 174.4634 244.0729  2.00553641163569
NAVSTAR 56 (USA 180)    
1 28474U 04045A   26198.67621534 -.00000098  00000+0  00000+0 0  9994
2 28474  55.1165 323.6683 0170225 317.1195  14.5735  2.00557200159039
NAVSTAR 57 (USA 183)    
1 28874U 05038A   26198.97270204 -.00000039  00000+0  00000+0 0  9993
2 28874  54.8533 271.9336 0128263 296.4475 214.0034  2.00563544152459
INMARSAT 4-F2           
1 28899U 05044A   26198.86662955 -.00000271  00000+0  00000+0 0  9991
2 28899   5.1343  43.6762 0002828  60.1029 287.3782  1.00271440 75828
NAVSTAR 58 (USA 190)    
1 29486U 06042A   26198.64108806  .00000029  00000+0  00000+0 0  9999
2 29486  54.7130 150.1299 0107253  55.2250 114.7718  2.00568097145001
NAVSTAR 59 (USA 192)    
1 29601U 06052A   26198.83231973  .00000041  00000+0  00000+0 0  9996
2 29601  54.9320 212.7914 0084747  91.0073 269.9918  2.00559823144028
NAVSTAR 60 (USA 196)    
1 32260U 07047A   26198.63952050 -.00000042  00000+0  00000+0 0  9992
2 32260  54.1176  78.8104 0167868  88.0458 273.9388  2.00553829137427
COSMOS 2433 [GLONASS-M] 
1 32275U 07052A   26197.94812885 -.00000066  00000+0  00000+0 0  9994
2 32275  65.5585 314.9323 0003584 203.6776 156.3207  2.13104076145694
COSMOS 2432 [GLONASS-M] 
1 32276U 07052B   26198.99356594 -.00000071  00000+0  00000+0 0  9997
2 32276  65.5737 315.0256 0007385 321.4557  64.3372  2.13103034145740
NAVSTAR 61 (USA 199)    
1 32384U 07062A   26198.49979303 -.00000036  00000+0  00000+0 0  9993
2 32384  55.0077 272.9327 0036067 167.6696 219.4821  2.00561741136127
COSMOS 2434 [GLONASS-M] 
1 32393U 07065A   26196.39612509  .00000054  00000+0  00000+0 0  9994
2 32393  64.3200 190.9641 0001276 327.5918 171.4568  2.13101170144375
COSMOS 2436 [GLONASS-M] 
1 32395U 07065C   26196.18930753  .00000056  00000+0  00000+0 0  9999
2 32395  64.3286 191.0436 0017314 353.5207 119.0574  2.13099957144324
NAVSTAR 62 (USA 201)    
1 32711U 08012A   26198.04938302  .00000023  00000+0  00000+0 0  9993
2 32711  54.5003 148.7318 0211694 248.1684 109.5345  2.00573180134350
NAVSTAR 64 (USA 206)    
1 35752U 09043A   26198.55185044 -.00000086  00000+0  00000+0 0  9999
2 35752  56.2293  26.2602 0053700  84.4915 285.7485  2.00552633123972
COSMOS 2456 [GLONASS-M] 
1 36111U 09070A   26197.17812943 -.00000016  00000+0  00000+0 0  9994
2 36111  65.0282  69.9837 0003619 341.3386 195.9451  2.13103565129042
COSMOS 2457 [GLONASS-M] 
1 36112U 09070B   26197.06975485 -.00000016  00000+0  00000+0 0  9994
2 36112  65.0138  69.8308 0004103 121.4707  99.8167  2.13101089129043
COSMOS 2460 [GLONASS-M] 
1 36402U 10007C   26198.88638964 -.00000069  00000+0  00000+0 0  9995
2 36402  65.4010 313.4281 0001854 147.0990  29.7910  2.13101453127382
NAVSTAR 65 (USA 213)    
1 36585U 10022A   26196.37400053  .00000049  00000+0  00000+0 0  9999
2 36585  54.2685 207.4265 0126723  66.1541 291.5416  2.00563746118156
BEIDOU-2 IGSO-1         
1 36828U 10036A   26198.83967113 -.00000112  00000+0  00000+0 0  9994
2 36828  54.3070 162.6827 0058852 225.1686 317.0611  1.00263080 58404
BEIDOU-2 G4             
1 37210U 10057A   26198.79862765 -.00000123  00000+0  00000+0 0  9997
2 37210   3.7213  68.7538 0005592 185.6452 128.6416  1.00272566 57593
BEIDOU-2 IGSO-2         
1 37256U 10068A   26198.92294310 -.00000202  00000+0  00000+0 0  9997
2 37256  47.4899 271.4483 0056956 213.9138 250.9288  1.00272861 57107
BEIDOU-2 IGSO-3         
1 37384U 11013A   26198.92086542 -.00000173  00000+0  00000+0 0  9993
2 37384  62.4498  39.8607 0035458 183.4333 150.2767  1.00260211 55969
GSAT-8                  
1 37605U 11022A   26198.82837625  .00000075  00000+0  00000+0 0  9994
2 37605   2.2085  81.4484 0002541 158.0498  49.4441  1.00271369 53526
BEIDOU-2 IGSO-4         
1 37763U 11038A   26198.88443079 -.00000032  00000+0  00000+0 0  9992
2 37763  54.6049 165.3996 0160314 231.4873 311.5627  1.00279354 54957
GSAT0101 (GALILEO-PFM)  
1 37846U 11060A   26196.59103932 -.00000101  00000+0  00000+0 0  9993
2 37846  56.9841 340.9916 0002223  61.9424 298.0655  1.70475567 91603
GSAT0102 (GALILEO-FM2)  
1 37847U 11060B   26196.51364557 -.00000101  00000+0  00000+0 0  9998
2 37847  56.9849 340.9943 0002108   7.4765 350.6813  1.70475846 91608
COSMOS 2476 [GLONASS-M] 
1 37867U 11064A   26198.96998792 -.00000030  00000+0  00000+0 0  9990
2 37867  65.2873  71.8325 0022071 235.6968 144.5667  2.13103611114424
COSMOS 2477 [GLONASS-M] 
1 37868U 11064B   26196.15395625 -.00000010  00000+0  00000+0 0  9994
2 37868  65.2921  72.0075 0019117 236.8947 323.2552  2.13102912114355
COSMOS 2475 [GLONASS-M] 
1 37869U 11064C   26198.80033905 -.00000028  00000+0  00000+0 0  9998
2 37869  65.3005  71.9400 0024690 250.9775 134.3774  2.13101626114424
